YAOGAN-9 01A
1 36413U 10009A   26074.71646067 -.00000015  00000+0  54471-4 0  9994
2 36413  63.3646 240.0751 0529596  20.9898 341.2004 13.45683456787391
SSO-00
1 50000U 00000A   26074.71646067  .00000000  00000-0  00000-0 0  9991
2 50000  97.4000 000.0000 0010000  000.0000 000.0000 15.20000000    6
SSO-01
1 50001U 00000A   26074.71646067  .00000000  00000-0  00000-0 0  9992
2 50001  97.6000 000.0000 0012000  000.0000 000.0000 15.16000000    6
SSO-02
1 50002U 00000A   26074.71646067  .00000000  00000-0  00000-0 0  9993
2 50002  97.8000 000.0000 0014000  000.0000 000.0000 15.12000000    7
SSO-03
1 50003U 00000A   26074.71646067  .00000000  00000-0  00000-0 0  9994
2 50003  98.0000 000.0000 0016000  000.0000 000.0000 15.08000000    8
SSO-04
1 50004U 00000A   26074.71646067  .00000000  00000-0  00000-0 0  9995
2 50004  98.2000 000.0000 0018000  000.0000 000.0000 15.04000000    9
SSO-05
1 50005U 00000A   26074.71646067  .00000000  00000-0  00000-0 0  9996
2 50005  97.4000 000.0000 0020000  000.0000 000.0000 15.00000000    0
SSO-06
1 50006U 00000A   26074.71646067  .00000000  00000-0  00000-0 0  9997
2 50006  97.6000 000.0000 0022000  000.0000 000.0000 14.96000000    9
SSO-07
1 50007U 00000A   26074.71646067  .00000000  00000-0  00000-0 0  9998
2 50007  97.8000 000.0000 0010000  000.0000 000.0000 14.92000000    5
SSO-08
1 50008U 00000A   26074.71646067  .00000000  00000-0  00000-0 0  9999
2 50008  98.0000 000.0000 0012000  000.0000 000.0000 14.88000000    6
SSO-09
1 50009U 00000A   26074.71646067  .00000000  00000-0  00000-0 0  9990
2 50009  98.2000 000.0000 0014000  000.0000 000.0000 15.20000000    8
SSO-10
1 50010U 00000A   26074.71646067  .00000000  00000-0  00000-0 0  9992
2 50010  97.4000 000.0000 0016000  000.0000 000.0000 15.16000000    8
SSO-11
1 50011U 00000A   26074.71646067  .00000000  00000-0  00000-0 0  9993
2 50011  97.6000 000.0000 0018000  000.0000 000.0000 15.12000000    9
SSO-12
1 50012U 00000A   26074.71646067  .00000000  00000-0  00000-0 0  9994
2 50012  97.8000 000.0000 0020000  000.0000 000.0000 15.08000000    0
SSO-13
1 50013U 00000A   26074.71646067  .00000000  00000-0  00000-0 0  9995
2 50013  98.0000 000.0000 0022000  000.0000 000.0000 15.04000000    2
SSO-14
1 50014U 00000A   26074.71646067  .00000000  00000-0  00000-0 0  9996
2 50014  98.2000 000.0000 0010000  000.0000 000.0000 15.00000000    8
SSO-15
1 50015U 00000A   26074.71646067  .00000000  00000-0  00000-0 0  9997
2 50015  97.4000 000.0000 0012000  000.0000 000.0000 14.96000000    6
SSO-16
1 50016U 00000A   26074.71646067  .00000000  00000-0  00000-0 0  9998
2 50016  97.6000 000.0000 0014000  000.0000 000.0000 14.92000000    7
SSO-17
1 50017U 00000A   26074.71646067  .00000000  00000-0  00000-0 0  9999
2 50017  97.8000 000.0000 0016000  000.0000 000.0000 14.88000000    7
SSO-18
1 50018U 00000A   26074.71646067  .00000000  00000-0  00000-0 0  9990
2 50018  98.0000 000.0000 0018000  000.0000 000.0000 15.20000000    0
SSO-19
1 50019U 00000A   26074.71646067  .00000000  00000-0  00000-0 0  9991
2 50019  98.2000 000.0000 0020000  000.0000 000.0000 15.16000000    1
SSO-20
1 50020U 00000A   26074.71646067  .00000000  00000-0  00000-0 0  9993
2 50020  97.4000 000.0000 0022000  000.0000 000.0000 15.12000000    2
SSO-21
1 50021U 00000A   26074.71646067  .00000000  00000-0  00000-0 0  9994
2 50021  97.6000 000.0000 0010000  000.0000 000.0000 15.08000000    7
SSO-22
1 50022U 00000A   26074.71646067  .00000000  00000-0  00000-0 0  9995
2 50022  97.8000 000.0000 0012000  000.0000 000.0000 15.04000000    8
SSO-23
1 50023U 00000A   26074.71646067  .00000000  00000-0  00000-0 0  9996
2 50023  98.0000 000.0000 0014000  000.0000 000.0000 15.00000000    0
SSO-24
1 50024U 00000A   26074.71646067  .00000000  00000-0  00000-0 0  9997
2 50024  98.2000 000.0000 0016000  000.0000 000.0000 14.96000000    9
SSO-25
1 50025U 00000A   26074.71646067  .00000000  00000-0  00000-0 0  9998
2 50025  97.4000 000.0000 0018000  000.0000 000.0000 14.92000000    9
SSO-26
1 50026U 00000A   26074.71646067  .00000000  00000-0  00000-0 0  9999
2 50026  97.6000 000.0000 0020000  000.0000 000.0000 14.88000000    0
SSO-27
1 50027U 00000A   26074.71646067  .00000000  00000-0  00000-0 0  9990
2 50027  97.8000 000.0000 0022000  000.0000 000.0000 15.20000000    2
SSO-28
1 50028U 00000A   26074.71646067  .00000000  00000-0  00000-0 0  9991
2 50028  98.0000 000.0000 0010000  000.0000 000.0000 15.16000000    8
SSO-29
1 50029U 00000A   26074.71646067  .00000000  00000-0  00000-0 0  9992
2 50029  98.2000 000.0000 0012000  000.0000 000.0000 15.12000000    9
SSO-30
1 50030U 00000A   26074.71646067  .00000000  00000-0  00000-0 0  9994
2 50030  97.4000 000.0000 0014000  000.0000 000.0000 15.08000000    9
SSO-31
1 50031U 00000A   26074.71646067  .00000000  00000-0  00000-0 0  9995
2 50031  97.6000 000.0000 0016000  000.0000 000.0000 15.04000000    0
SSO-32
1 50032U 00000A   26074.71646067  .00000000  00000-0  00000-0 0  9996
2 50032  97.8000 000.0000 0018000  000.0000 000.0000 15.00000000    1
SSO-33
1 50033U 00000A   26074.71646067  .00000000  00000-0  00000-0 0  9997
2 50033  98.0000 000.0000 0020000  000.0000 000.0000 14.96000000    2
SSO-34
1 50034U 00000A   26074.71646067  .00000000  00000-0  00000-0 0  9998
2 50034  98.2000 000.0000 0022000  000.0000 000.0000 14.92000000    3
SSO-35
1 50035U 00000A   26074.71646067  .00000000  00000-0  00000-0 0  9999
2 50035  97.4000 000.0000 0010000  000.0000 000.0000 14.88000000    7
SSO-36
1 50036U 00000A   26074.71646067  .00000000  00000-0  00000-0 0  9990
2 50036  97.6000 000.0000 0012000  000.0000 000.0000 15.20000000    9
SSO-37
1 50037U 00000A   26074.71646067  .00000000  00000-0  00000-0 0  9991
2 50037  97.8000 000.0000 0014000  000.0000 000.0000 15.16000000    9
SSO-38
1 50038U 00000A   26074.71646067  .00000000  00000-0  00000-0 0  9992
2 50038  98.0000 000.0000 0016000  000.0000 000.0000 15.12000000    1
SSO-39
1 50039U 00000A   26074.71646067  .00000000  00000-0  00000-0 0  9993
2 50039  98.2000 000.0000 0018000  000.0000 000.0000 15.08000000    1
MID-00
1 51000U 00000A   26074.71646067  .00000000  00000-0  00000-0 0  9992
2 51000  53.0000 000.0000 0008000  000.0000 000.0000 15.05000000    5
MID-01
1 51001U 00000A   26074.71646067  .00000000  00000-0  00000-0 0  9993
2 51001  53.3000 000.0000 0009000  000.0000 000.0000 15.02000000    7
MID-02
1 51002U 00000A   26074.71646067  .00000000  00000-0  00000-0 0  9994
2 51002  53.6000 000.0000 0010000  000.0000 000.0000 14.99000000    8
MID-03
1 51003U 00000A   26074.71646067  .00000000  00000-0  00000-0 0  9995
2 51003  53.9000 000.0000 0011000  000.0000 000.0000 14.96000000    0
MID-04
1 51004U 00000A   26074.71646067  .00000000  00000-0  00000-0 0  9996
2 51004  53.0000 000.0000 0012000  000.0000 000.0000 14.93000000    0
MID-05
1 51005U 00000A   26074.71646067  .00000000  00000-0  00000-0 0  9997
2 51005  53.3000 000.0000 0008000  000.0000 000.0000 14.90000000    6
MID-06
1 51006U 00000A   26074.71646067  .00000000  00000-0  00000-0 0  9998
2 51006  53.6000 000.0000 0009000  000.0000 000.0000 15.05000000    8
MID-07
1 51007U 00000A   26074.71646067  .00000000  00000-0  00000-0 0  9999
2 51007  53.9000 000.0000 0010000  000.0000 000.0000 15.02000000    1
MID-08
1 51008U 00000A   26074.71646067  .00000000  00000-0  00000-0 0  9990
2 51008  53.0000 000.0000 0011000  000.0000 000.0000 14.99000000    9
MID-09
1 51009U 00000A   26074.71646067  .00000000  00000-0  00000-0 0  9991
2 51009  53.3000 000.0000 0012000  000.0000 000.0000 14.96000000    1
MID-10
1 51010U 00000A   26074.71646067  .00000000  00000-0  00000-0 0  9993
2 51010  53.6000 000.0000 0008000  000.0000 000.0000 14.93000000    8
MID-11
1 51011U 00000A   26074.71646067  .00000000  00000-0  00000-0 0  9994
2 51011  53.9000 000.0000 0009000  000.0000 000.0000 14.90000000    0
MID-12
1 51012U 00000A   26074.71646067  .00000000  00000-0  00000-0 0  9995
2 51012  53.0000 000.0000 0010000  000.0000 000.0000 15.05000000    1
MID-13
1 51013U 00000A   26074.71646067  .00000000  00000-0  00000-0 0  9996
2 51013  53.3000 000.0000 0011000  000.0000 000.0000 15.02000000    3
MID-14
1 51014U 00000A   26074.71646067  .00000000  00000-0  00000-0 0  9997
2 51014  53.6000 000.0000 0012000  000.0000 000.0000 14.99000000    3
HIGH-ECC-DESIGNED
1 52001U 00000A   26074.71646067  .00000000  00000-0  00000-0 0  9994
2 52001  63.4000 000.0000 2500000  000.0000 000.0000 13.40000000    8
VERY-LOW-LEO
1 52002U 00000A   26074.71646067  .00000000  00000-0  00000-0 0  9995
2 52002  51.6000 000.0000 0012000  000.0000 000.0000 16.10000000    4
